{
  "type": "FeatureCollection",
  "features": [
    {
      "type": "Feature",
      "properties": {
        "norad_id": 66983,
        "name": "STARLINK-36145",
        "group": "last-30-days",
        "lat": 36.04851141643309,
        "lon": -108.45448424635572,
        "alt_km": 317.99174783333274,
        "timestamp": "2025-12-19T22:41:51.099053+00:00",
        "meta_object_name": "STARLINK-36145",
        "meta_object_id": "2025-288AA",
        "meta_epoch": "2025-12-19T14:37:17.427072",
        "meta_mean_motion": 15.83382075,
        "meta_eccentricity": 0.0002564,
        "meta_inclination": 43.0014,
        "meta_ra_of_asc_node": 124.9686,
        "meta_arg_of_pericenter": 286.0273,
        "meta_mean_anomaly": 74.0317,
        "meta_ephemeris_type": 0,
        "meta_classification_type": "U",
        "meta_norad_cat_id": 66983,
        "meta_element_set_no": 999,
        "meta_rev_at_epoch": 293,
        "meta_bstar": -0.0027173,
        "meta_mean_motion_dot": -0.00572524,
        "meta_mean_motion_ddot": 0,
        "tle_line1": "1 66983U 25288AA  25353.60922948 -.00572524  00000+0 -27173-2 0  9993",
        "tle_line2": "2 66983  43.0014 124.9686 0002564 286.0273  74.0317 15.83382075  2935"
      },
      "geometry": {
        "type": "Point",
        "coordinates": [
          -108.45448424635572,
          36.04851141643309
        ]
      }
    },
    {
      "type": "Feature",
      "properties": {
        "norad_id": 66984,
        "name": "STARLINK-35591",
        "group": "last-30-days",
        "lat": 34.27948389122015,
        "lon": -104.11511425938825,
        "alt_km": 308.2212438027318,
        "timestamp": "2025-12-19T22:41:51.099063+00:00",
        "meta_object_name": "STARLINK-35591",
        "meta_object_id": "2025-288AB",
        "meta_epoch": "2025-12-19T16:08:11.751072",
        "meta_mean_motion": 15.86480094,
        "meta_eccentricity": 0.0014618,
        "meta_inclination": 43.0024,
        "meta_ra_of_asc_node": 124.5818,
        "meta_arg_of_pericenter": 276.7753,
        "meta_mean_anomaly": 83.1457,
        "meta_ephemeris_type": 0,
        "meta_classification_type": "U",
        "meta_norad_cat_id": 66984,
        "meta_element_set_no": 999,
        "meta_rev_at_epoch": 294,
        "meta_bstar": 0.015652,
        "meta_mean_motion_dot": 0.04889545,
        "meta_mean_motion_ddot": 0,
        "tle_line1": "1 66984U 25288AB  25353.67235823  .04889545  00000+0  15652-1 0  9994",
        "tle_line2": "2 66984  43.0024 124.5818 0014618 276.7753  83.1457 15.86480094  2942"
      },
      "geometry": {
        "type": "Point",
        "coordinates": [
          -104.11511425938825,
          34.27948389122015
        ]
      }
    },
    {
      "type": "Feature",
      "properties": {
        "norad_id": 66985,
        "name": "STARLINK-36103",
        "group": "last-30-days",
        "lat": 35.10898549417602,
        "lon": -106.07958159689782,
        "alt_km": 318.22856353937186,
        "timestamp": "2025-12-19T22:41:51.099072+00:00",
        "meta_object_name": "STARLINK-36103",
        "meta_object_id": "2025-288AC",
        "meta_epoch": "2025-12-19T16:07:33.151008",
        "meta_mean_motion": 15.83189138,
        "meta_eccentricity": 0.0002779,
        "meta_inclination": 43.0015,
        "meta_ra_of_asc_node": 124.5782,
        "meta_arg_of_pericenter": 265.4698,
        "meta_mean_anomaly": 94.5857,
        "meta_ephemeris_type": 0,
        "meta_classification_type": "U",
        "meta_norad_cat_id": 66985,
        "meta_element_set_no": 999,
        "meta_rev_at_epoch": 294,
        "meta_bstar": -0.0025572,
        "meta_mean_motion_dot": -0.00536142,
        "meta_mean_motion_ddot": 0,
        "tle_line1": "1 66985U 25288AC  25353.67191147 -.00536142  00000+0 -25572-2 0  9998",
        "tle_line2": "2 66985  43.0015 124.5782 0002779 265.4698  94.5857 15.83189138  2943"
      },
      "geometry": {
        "type": "Point",
        "coordinates": [
          -106.07958159689782,
          35.10898549417602
        ]
      }
    },
    {
      "type": "Feature",
      "properties": {
        "norad_id": 66986,
        "name": "STARLINK-36135",
        "group": "last-30-days",
        "lat": 34.031363167251605,
        "lon": -103.5527009283262,
        "alt_km": 318.40376573960566,
        "timestamp": "2025-12-19T22:41:51.099082+00:00",
        "meta_object_name": "STARLINK-36135",
        "meta_object_id": "2025-288AD",
        "meta_epoch": "2025-12-19T16:06:57.424608",
        "meta_mean_motion": 15.83176247,
        "meta_eccentricity": 0.0002752,
        "meta_inclination": 43.001,
        "meta_ra_of_asc_node": 124.5737,
        "meta_arg_of_pericenter": 266.3902,
        "meta_mean_anomaly": 93.6656,
        "meta_ephemeris_type": 0,
        "meta_classification_type": "U",
        "meta_norad_cat_id": 66986,
        "meta_element_set_no": 999,
        "meta_rev_at_epoch": 294,
        "meta_bstar": -0.0025748,
        "meta_mean_motion_dot": -0.00539297,
        "meta_mean_motion_ddot": 0,
        "tle_line1": "1 66986U 25288AD  25353.67149797 -.00539297  00000+0 -25748-2 0  9992",
        "tle_line2": "2 66986  43.0010 124.5737 0002752 266.3902  93.6656 15.83176247  2942"
      },
      "geometry": {
        "type": "Point",
        "coordinates": [
          -103.5527009283262,
          34.031363167251605
        ]
      }
    },
    {
      "type": "Feature",
      "properties": {
        "norad_id": 66987,
        "name": "STARLINK-36147",
        "group": "last-30-days",
        "lat": 32.96201956428784,
        "lon": -101.21128791248397,
        "alt_km": 318.5755217274418,
        "timestamp": "2025-12-19T22:41:51.099092+00:00",
        "meta_object_name": "STARLINK-36147",
        "meta_object_id": "2025-288AE",
        "meta_epoch": "2025-12-19T16:06:23.892768",
        "meta_mean_motion": 15.83181314,
        "meta_eccentricity": 0.0002682,
        "meta_inclination": 43.0016,
        "meta_ra_of_asc_node": 124.5713,
        "meta_arg_of_pericenter": 272.6474,
        "meta_mean_anomaly": 87.4092,
        "meta_ephemeris_type": 0,
        "meta_classification_type": "U",
        "meta_norad_cat_id": 66987,
        "meta_element_set_no": 999,
        "meta_rev_at_epoch": 294,
        "meta_bstar": -0.0024982,
        "meta_mean_motion_dot": -0.00524262,
        "meta_mean_motion_ddot": 0,
        "tle_line1": "1 66987U 25288AE  25353.67110987 -.00524262  00000+0 -24982-2 0  9997",
        "tle_line2": "2 66987  43.0016 124.5713 0002682 272.6474  87.4092 15.83181314  2945"
      },
      "geometry": {
        "type": "Point",
        "coordinates": [
          -101.21128791248397,
          32.96201956428784
        ]
      }
    },
    {
      "type": "Feature",
      "properties": {
        "norad_id": 66988,
        "name": "YAOGAN-47",
        "group": "last-30-days",
        "lat": -62.2032445843214,
        "lon": -135.44464113612145,
        "alt_km": 503.90152698681504,
        "timestamp": "2025-12-19T22:41:51.099108+00:00",
        "meta_object_name": "YAOGAN-47",
        "meta_object_id": "2025-289A",
        "meta_epoch": "2025-12-15T02:32:19.481856",
        "meta_mean_motion": 15.23184629,
        "meta_eccentricity": 7.87e-05,
        "meta_inclination": 97.5271,
        "meta_ra_of_asc_node": 54.2297,
        "meta_arg_of_pericenter": 67.3408,
        "meta_mean_anomaly": 292.7912,
        "meta_ephemeris_type": 0,
        "meta_classification_type": "U",
        "meta_norad_cat_id": 66988,
        "meta_element_set_no": 999,
        "meta_rev_at_epoch": 90,
        "meta_bstar": 0.00011849353,
        "meta_mean_motion_dot": 2.729e-05,
        "meta_mean_motion_ddot": 0,
        "tle_line1": "1 66988U 25289A   25349.10578104  .00002729  00000+0  11849-3 0  9997",
        "tle_line2": "2 66988  97.5271  54.2297 0000787  67.3408 292.7912 15.23184629   901"
      },
      "geometry": {
        "type": "Point",
        "coordinates": [
          -135.44464113612145,
          -62.2032445843214
        ]
      }
    },
    {
      "type": "Feature",
      "properties": {
        "norad_id": 66989,
        "name": "CZ-4B R/B",
        "group": "last-30-days",
        "lat": 42.86923820421603,
        "lon": -113.13554754075324,
        "alt_km": 449.8982314292916,
        "timestamp": "2025-12-19T22:41:51.099118+00:00",
        "meta_object_name": "CZ-4B R/B",
        "meta_object_id": "2025-289B",
        "meta_epoch": "2025-12-19T19:03:19.184256",
        "meta_mean_motion": 15.68896967,
        "meta_eccentricity": 0.0143702,
        "meta_inclination": 97.5256,
        "meta_ra_of_asc_node": 59.6524,
        "meta_arg_of_pericenter": 336.203,
        "meta_mean_anomaly": 23.2628,
        "meta_ephemeris_type": 0,
        "meta_classification_type": "U",
        "meta_norad_cat_id": 66989,
        "meta_element_set_no": 999,
        "meta_rev_at_epoch": 167,
        "meta_bstar": 0.00048129,
        "meta_mean_motion_dot": 0.00099944,
        "meta_mean_motion_ddot": 5.1169e-06,
        "tle_line1": "1 66989U 25289B   25353.79397204  .00099944  51169-5  48129-3 0  9992",
        "tle_line2": "2 66989  97.5256  59.6524 0143702 336.2030  23.2628 15.68896967  1671"
      },
      "geometry": {
        "type": "Point",
        "coordinates": [
          -113.13554754075324,
          42.86923820421603
        ]
      }
    }
  ]
}